start=new Date('2022-08-19T00:00:00.000Z').valueOf();
sats=[{"REF_FRAME":"TEME","TIME_SYSTEM":"UTC","ELEMENT_SET_NO":"999","MEAN_MOTION_DDOT":"0.0000000000000","PERIOD":"95.592","MEAN_MOTION_DOT":"0.00001654","OBJECT_NAME":"STARLINK-2565","ECCENTRICITY":"0.00016590","APOAPSIS":"548.346","MEAN_MOTION":"15.06405215","RCS_SIZE":"LARGE","COUNTRY_CODE":"US","EPOCH":"2022-08-18T05:28:15.875328","SITE":"AFETR","TLE_LINE1":"1 48280U 21036E   22230.22796152  .00001654  00000-0  12992-3 0  9999","PERIAPSIS":"546.049","EPHEMERIS_TYPE":"0","MEAN_ANOMALY":"292.4970","DECAY_DATE":null,"OBJECT_ID":"2021-036E","NORAD_CAT_ID":"48280","RA_OF_ASC_NODE":"170.1329","FILE":"3539281","BSTAR":"0.00012992000000","GP_ID":"210440216","SEMIMAJOR_AXIS":"6925.333","TLE_LINE2":"2 48280  53.0559 170.1329 0001659  67.6195 292.4970 15.06405215 72246","INCLINATION":"53.0559","CLASSIFICATION_TYPE":"U","MEAN_ELEMENT_THEORY":"SGP4","CENTER_NAME":"EARTH","ARG_OF_PERICENTER":"67.6195","LAUNCH_DATE":"2021-04-29","REV_AT_EPOCH":"7224","OBJECT_TYPE":"PAYLOAD"},{"TLE_LINE1":"1 48281U 21036F   22230.04182703  .00003665  00000-0  26472-3 0  9993","SITE":"AFETR","EPOCH":"2022-08-18T01:00:13.855392","COUNTRY_CODE":"US","EPHEMERIS_TYPE":"0","PERIAPSIS":"546.151","ELEMENT_SET_NO":"999","TIME_SYSTEM":"UTC","MEAN_MOTION_DDOT":"0.0000000000000","REF_FRAME":"TEME","APOAPSIS":"548.207","MEAN_MOTION":"15.06411261","RCS_SIZE":"LARGE","PERIOD":"95.591","ECCENTRICITY":"0.00014840","MEAN_MOTION_DOT":"0.00003665","OBJECT_NAME":"STARLINK-2520","MEAN_ELEMENT_THEORY":"SGP4","CLASSIFICATION_TYPE":"U","OBJECT_TYPE":"PAYLOAD","ARG_OF_PERICENTER":"70.2662","LAUNCH_DATE":"2021-04-29","CENTER_NAME":"EARTH","REV_AT_EPOCH":"7249","NORAD_CAT_ID":"48281","OBJECT_ID":"2021-036F","DECAY_DATE":null,"MEAN_ANOMALY":"289.8487","SEMIMAJOR_AXIS":"6925.314","GP_ID":"210440465","BSTAR":"0.00026472000000","INCLINATION":"53.0533","TLE_LINE2":"2 48281  53.0533 150.9660 0001484  70.2662 289.8487 15.06411261 72496","RA_OF_ASC_NODE":"150.9660","FILE":"3539281"},{"MEAN_ELEMENT_THEORY":"SGP4","CLASSIFICATION_TYPE":"U","OBJECT_TYPE":"PAYLOAD","REV_AT_EPOCH":"7245","CENTER_NAME":"EARTH","LAUNCH_DATE":"2021-04-29","ARG_OF_PERICENTER":"86.2233","OBJECT_ID":"2021-036G","NORAD_CAT_ID":"48282","MEAN_ANOMALY":"273.8926","DECAY_DATE":null,"TLE_LINE2":"2 48282  53.0551 155.2733 0001490  86.2233 273.8926 15.06405070 72452","INCLINATION":"53.0551","BSTAR":"0.00020907000000","GP_ID":"210441216","SEMIMAJOR_AXIS":"6925.333","FILE":"3539281","RA_OF_ASC_NODE":"155.2733","SITE":"AFETR","TLE_LINE1":"1 48282U 21036G   22230.19801232  .00002834  00000-0  20907-3 0  9999","COUNTRY_CODE":"US","EPOCH":"2022-08-18T04:45:08.264448","PERIAPSIS":"546.166","EPHEMERIS_TYPE":"0","MEAN_MOTION_DDOT":"0.0000000000000","TIME_SYSTEM":"UTC","ELEMENT_SET_NO":"999","REF_FRAME":"TEME","MEAN_MOTION":"15.06405070","RCS_SIZE":"LARGE","APOAPSIS":"548.230","PERIOD":"95.592","MEAN_MOTION_DOT":"0.00002834","OBJECT_NAME":"STARLINK-2558","ECCENTRICITY":"0.00014900"},{"OBJECT_ID":"2021-036H","NORAD_CAT_ID":"48283","MEAN_ANOMALY":"281.6151","DECAY_DATE":null,"TLE_LINE2":"2 48283  53.0531 155.2899 0001513  78.5008 281.6151 15.06404622 72453","INCLINATION":"53.0531","BSTAR":"0.00015464000000","SEMIMAJOR_AXIS":"6925.334","GP_ID":"210441948","FILE":"3539281","RA_OF_ASC_NODE":"155.2899","MEAN_ELEMENT_THEORY":"SGP4","CLASSIFICATION_TYPE":"U","OBJECT_TYPE":"PAYLOAD","REV_AT_EPOCH":"7245","CENTER_NAME":"EARTH","LAUNCH_DATE":"2021-04-29","ARG_OF_PERICENTER":"78.5008","MEAN_MOTION_DDOT":"0.0000000000000","TIME_SYSTEM":"UTC","ELEMENT_SET_NO":"999","REF_FRAME":"TEME","MEAN_MOTION":"15.06404622","RCS_SIZE":"MEDIUM","APOAPSIS":"548.247","MEAN_MOTION_DOT":"0.00002023","PERIOD":"95.592","OBJECT_NAME":"STARLINK-2516","ECCENTRICITY":"0.00015130","SITE":"AFETR","TLE_LINE1":"1 48283U 21036H   22230.19432500  .00002023  00000-0  15464-3 0  9990","COUNTRY_CODE":"US","EPOCH":"2022-08-18T04:39:49.680000","PERIAPSIS":"546.152","EPHEMERIS_TYPE":"0"},{"RA_OF_ASC_NODE":"155.2922","FILE":"3539281","INCLINATION":"53.0558","TLE_LINE2":"2 48284  53.0558 155.2922 0001754  71.6997 288.4183 15.06394271 72445","SEMIMAJOR_AXIS":"6925.366","GP_ID":"210440716","BSTAR":"0.00015006000000","DECAY_DATE":null,"MEAN_ANOMALY":"288.4183","NORAD_CAT_ID":"48284","OBJECT_ID":"2021-036J","REV_AT_EPOCH":"7244","ARG_OF_PERICENTER":"71.6997","LAUNCH_DATE":"2021-04-29","CENTER_NAME":"EARTH","OBJECT_TYPE":"PAYLOAD","CLASSIFICATION_TYPE":"U","MEAN_ELEMENT_THEORY":"SGP4","PERIOD":"95.593","ECCENTRICITY":"0.00017540","MEAN_MOTION_DOT":"0.00001954","OBJECT_NAME":"STARLINK-2564","RCS_SIZE":"LARGE","MEAN_MOTION":"15.06394271","APOAPSIS":"548.446","REF_FRAME":"TEME","MEAN_MOTION_DDOT":"0.0000000000000","ELEMENT_SET_NO":"999","TIME_SYSTEM":"UTC","EPHEMERIS_TYPE":"0","PERIAPSIS":"546.016","EPOCH":"2022-08-18T04:34:32.398464","COUNTRY_CODE":"US","TLE_LINE1":"1 48284U 21036J   22230.19065276  .00001954  00000-0  15006-3 0  9997","SITE":"AFETR"},{"TLE_LINE1":"1 48285U 21036K   22230.18600991  .00005143  00000-0  36381-3 0  9999","SITE":"AFETR","EPOCH":"2022-08-18T04:27:51.256224","COUNTRY_CODE":"US","EPHEMERIS_TYPE":"0","PERIAPSIS":"546.086","MEAN_MOTION_DDOT":"0.0000000000000","ELEMENT_SET_NO":"999","TIME_SYSTEM":"UTC","REF_FRAME":"TEME","RCS_SIZE":"LARGE","MEAN_MOTION":"15.06410805","APOAPSIS":"548.275","MEAN_MOTION_DOT":"0.00005143","PERIOD":"95.591","OBJECT_NAME":"STARLINK-2548","ECCENTRICITY":"0.00015810","MEAN_ELEMENT_THEORY":"SGP4","CLASSIFICATION_TYPE":"U","OBJECT_TYPE":"PAYLOAD","REV_AT_EPOCH":"7244","ARG_OF_PERICENTER":"70.7605","LAUNCH_DATE":"2021-04-29","CENTER_NAME":"EARTH","NORAD_CAT_ID":"48285","OBJECT_ID":"2021-036K","DECAY_DATE":null,"MEAN_ANOMALY":"289.3555","INCLINATION":"53.0534","TLE_LINE2":"2 48285  53.0534 155.3146 0001581  70.7605 289.3555 15.06410805 72448","GP_ID":"210440965","SEMIMAJOR_AXIS":"6925.315","BSTAR":"0.00036381000000","FILE":"3539281","RA_OF_ASC_NODE":"155.3146"},{"MEAN_ANOMALY":"277.0374","DECAY_DATE":null,"OBJECT_ID":"2021-036L","NORAD_CAT_ID":"48286","RA_OF_ASC_NODE":"155.3449","FILE":"3539281","BSTAR":"0.00020308000000","GP_ID":"210441716","SEMIMAJOR_AXIS":"6925.367","TLE_LINE2":"2 48286  53.0547 155.3449 0001494  83.0784 277.0374 15.06394000 72448","INCLINATION":"53.0547","CLASSIFICATION_TYPE":"U","MEAN_ELEMENT_THEORY":"SGP4","CENTER_NAME":"EARTH","ARG_OF_PERICENTER":"83.0784","LAUNCH_DATE":"2021-04-29","REV_AT_EPOCH":"7244","OBJECT_TYPE":"PAYLOAD","REF_FRAME":"TEME","TIME_SYSTEM":"UTC","ELEMENT_SET_NO":"999","MEAN_MOTION_DDOT":"0.0000000000000","ECCENTRICITY":"0.00014940","PERIOD":"95.593","MEAN_MOTION_DOT":"0.00002744","OBJECT_NAME":"STARLINK-2547","APOAPSIS":"548.267","MEAN_MOTION":"15.06394000","RCS_SIZE":"LARGE","COUNTRY_CODE":"US","EPOCH":"2022-08-18T04:23:55.191552","SITE":"AFETR","TLE_LINE1":"1 48286U 21036L   22230.18327768  .00002744  00000-0  20308-3 0  9994","PERIAPSIS":"546.197","EPHEMERIS_TYPE":"0"},{"CLASSIFICATION_TYPE":"U","MEAN_ELEMENT_THEORY":"SGP4","CENTER_NAME":"EARTH","ARG_OF_PERICENTER":"67.6385","LAUNCH_DATE":"2021-04-29","REV_AT_EPOCH":"7304","OBJECT_TYPE":"PAYLOAD","MEAN_ANOMALY":"292.4764","DECAY_DATE":null,"OBJECT_ID":"2021-036M","NORAD_CAT_ID":"48287","FILE":"3539302","RA_OF_ASC_NODE":"154.7593","BSTAR":"0.00028449000000","GP_ID":"210445825","SEMIMAJOR_AXIS":"6925.309","TLE_LINE2":"2 48287  53.0549 154.7593 0001512  67.6385 292.4764 15.06413014 73048","INCLINATION":"53.0549","COUNTRY_CODE":"US","EPOCH":"2022-08-18T07:29:40.909920","SITE":"AFETR","TLE_LINE1":"1 48287U 21036M   22230.31227905  .00003960  00000-0  28449-3 0  9997","PERIAPSIS":"546.127","EPHEMERIS_TYPE":"0","REF_FRAME":"TEME","TIME_SYSTEM":"UTC","ELEMENT_SET_NO":"999","MEAN_MOTION_DDOT":"0.0000000000000","PERIOD":"95.591","ECCENTRICITY":"0.00015120","MEAN_MOTION_DOT":"0.00003960","OBJECT_NAME":"STARLINK-2566","APOAPSIS":"548.221","MEAN_MOTION":"15.06413014","RCS_SIZE":"LARGE"},{"OBJECT_TYPE":"PAYLOAD","LAUNCH_DATE":"2021-04-29","ARG_OF_PERICENTER":"68.4909","CENTER_NAME":"EARTH","REV_AT_EPOCH":"7255","MEAN_ELEMENT_THEORY":"SGP4","CLASSIFICATION_TYPE":"U","SEMIMAJOR_AXIS":"6925.305","GP_ID":"210475446","BSTAR":"0.00031672000000","INCLINATION":"53.0536","TLE_LINE2":"2 48288  53.0536 152.0831 0001547  68.4909 291.6245 15.06414179 72553","RA_OF_ASC_NODE":"152.0831","FILE":"3539615","NORAD_CAT_ID":"48288","OBJECT_ID":"2021-036N","DECAY_DATE":null,"MEAN_ANOMALY":"291.6245","EPHEMERIS_TYPE":"0","PERIAPSIS":"546.099","TLE_LINE1":"1 48288U 21036N   22230.90476358  .00004441  00000-0  31672-3 0  9998","SITE":"AFETR","EPOCH":"2022-08-18T21:42:51.573312","COUNTRY_CODE":"US","APOAPSIS":"548.241","MEAN_MOTION":"15.06414179","RCS_SIZE":"LARGE","OBJECT_NAME":"STARLINK-2562","PERIOD":"95.591","MEAN_MOTION_DOT":"0.00004441","ECCENTRICITY":"0.00015470","ELEMENT_SET_NO":"999","TIME_SYSTEM":"UTC","MEAN_MOTION_DDOT":"0.0000000000000","REF_FRAME":"TEME"},{"REF_FRAME":"TEME","TIME_SYSTEM":"UTC","ELEMENT_SET_NO":"999","MEAN_MOTION_DDOT":"0.0000000000000","ECCENTRICITY":"0.00015870","PERIOD":"95.592","MEAN_MOTION_DOT":"0.00005139","OBJECT_NAME":"STARLINK-2545","APOAPSIS":"548.290","RCS_SIZE":"LARGE","MEAN_MOTION":"15.06407254","COUNTRY_CODE":"US","EPOCH":"2022-08-18T21:38:55.493952","SITE":"AFETR","TLE_LINE1":"1 48289U 21036P   22230.90203118  .00005139  00000-0  36358-3 0  9992","PERIAPSIS":"546.092","EPHEMERIS_TYPE":"0","MEAN_ANOMALY":"292.8993","DECAY_DATE":null,"OBJECT_ID":"2021-036P","NORAD_CAT_ID":"48289","RA_OF_ASC_NODE":"152.1011","FILE":"3539615","BSTAR":"0.00036358000000","GP_ID":"210473696","SEMIMAJOR_AXIS":"6925.326","TLE_LINE2":"2 48289  53.0544 152.1011 0001587  67.2164 292.8993 15.06407254 72557","INCLINATION":"53.0544","CLASSIFICATION_TYPE":"U","MEAN_ELEMENT_THEORY":"SGP4","CENTER_NAME":"EARTH","ARG_OF_PERICENTER":"67.2164","LAUNCH_DATE":"2021-04-29","REV_AT_EPOCH":"7255","OBJECT_TYPE":"PAYLOAD"}];
